EUTELSAT QUANTUM        
1 49056U 21069B   25225.54849763  .00000127  00000+0  00000+0 0  9992
2 49056   0.0506 288.8949 0002097 233.2624  45.2075  1.00271680 14840
EUTELSAT KONNECT VHTS   
1 53765U 22110A   25225.39656576  .00000017  00000+0  00000+0 0  9991
2 53765   0.0573 101.6464 0002636  36.6412 329.2325  1.00268656  3748
EUTELSAT HOTBIRD 13F    
1 54048U 22134A   25224.97055843  .00000088  00000+0  00000+0 0  9993
2 54048   0.0547 282.5568 0001918  77.9312 323.5512  1.00271894 10287
EUTELSAT HOTBIRD 13G    
1 54225U 22146A   25224.89975370  .00000088  00000+0  00000+0 0  9990
2 54225   0.0532 244.1288 0002072 295.7211 118.6426  1.00270966  4370
EUTELSAT 10B            
1 54259U 22157A   25225.54087093  .00000068  00000+0  00000+0 0  9996
2 54259   0.0524  98.4216 0001523   7.6638  60.8270  1.00266639  9936
EUTELSAT 36D            
1 59346U 24059A   25225.47475684  .00000157  00000+0  00000+0 0  9999
2 59346   0.0142  98.7743 0000263  83.3899 346.7485  1.00271543  5066
